{"type": "FeatureCollection", "features": [ {"type": "Feature", "properties": {"norad_id": 41836, "name": "HIMAWARI-9", "group": "weather", "lat": -0.028321689865475768, "lon": -150.04499621371258, "alt_km": 35792.124344982025, "timestamp": "2025-12-19T22:41:52.021394+00:00", "meta": {"OBJECT_NAME": "HIMAWARI-9", "OBJECT_ID": "2016-064A", "EPOCH": "2025-12-19T12:13:16.056768", "MEAN_MOTION": 1.00265738, "ECCENTRICITY": 0.000173, "INCLINATION": 0.0186, "RA_OF_ASC_NODE": 351.5556, "ARG_OF_PERICENTER": 344.8328, "MEAN_ANOMALY": 76.0224, "EPHEMERIS_TYPE": 0, "CLASSIFICATION_TYPE": "U", "NORAD_CAT_ID": 41836, "ELEMENT_SET_NO": 999, "REV_AT_EPOCH": 3340, "BSTAR": 0, "MEAN_MOTION_DOT": 0, "MEAN_MOTION_DDOT": 0}, "tle": {"line1": "1 41836U 16064A   25353.50921362  .00000000  00000+0  00000+0 0  9993", "line2": "2 41836   0.0186 351.5556 0001730 344.8328  76.0224  1.00265738 33405"}}, "geometry": {"type": "Point", "coordinates": [-150.04499621371258, -0.028321689865475768]}}, {"type": "Feature", "properties": {"norad_id": 41866, "name": "GOES 16", "group": "weather", "lat": -0.05915910034182405, "lon": -35.39693225473085, "alt_km": 35779.4174021662, "timestamp": "2025-12-19T22:41:52.021406+00:00", "meta": {"OBJECT_NAME": "GOES 16", "OBJECT_ID": "2016-071A", "EPOCH": "2025-12-19T16:11:23.254080", "MEAN_MOTION": 1.00272202, "ECCENTRICITY": 0.0003019, "INCLINATION": 0.073, "RA_OF_ASC_NODE": 103.1255, "ARG_OF_PERICENTER": 162.2731, "MEAN_ANOMALY": 321.2972, "EPHEMERIS_TYPE": 0, "CLASSIFICATION_TYPE": "U", "NORAD_CAT_ID": 41866, "ELEMENT_SET_NO": 999, "REV_AT_EPOCH": 3330, "BSTAR": 0, "MEAN_MOTION_DOT": -6.7e-07, "MEAN_MOTION_DDOT": 0}, "tle": {"line1": "1 41866U 16071A   25353.67457470 -.00000067  00000+0  00000+0 0  9990", "line2": "2 41866   0.0730 103.1255 0003019 162.2731 321.2972  1.00272202 33300"}}, "geometry": {"type": "Point", "coordinates": [-35.39693225473085, -0.05915910034182405]}}, {"type": "Feature", "properties": {"norad_id": 41882, "name": "FENGYUN 4A", "group": "weather", "lat": 1.7394506977449593, "lon": -167.03064542038888, "alt_km": 35771.34657394411, "timestamp": "2025-12-19T22:41:52.021418+00:00", "meta": {"OBJECT_NAME": "FENGYUN 4A", "OBJECT_ID": "2016-077A", "EPOCH": "2025-12-19T13:51:06.687072", "MEAN_MOTION": 1.00266581, "ECCENTRICITY": 0.0004506, "INCLINATION": 1.866, "RA_OF_ASC_NODE": 82.3247, "ARG_OF_PERICENTER": 142.8816, "MEAN_ANOMALY": 194.7423, "EPHEMERIS_TYPE": 0, "CLASSIFICATION_TYPE": "U", "NORAD_CAT_ID": 41882, "ELEMENT_SET_NO": 999, "REV_AT_EPOCH": 3312, "BSTAR": 0, "MEAN_MOTION_DOT": -3.34e-06, "MEAN_MOTION_DDOT": 0}, "tle": {"line1": "1 41882U 16077A   25353.57716073 -.00000334  00000+0  00000+0 0  9997", "line2": "2 41882   1.8660  82.3247 0004506 142.8816 194.7423  1.00266581 33125"}}, "geometry": {"type": "Point", "coordinates": [-167.03064542038888, 1.7394506977449593]}}, {"type": "Feature", "properties": {"norad_id": 41884, "name": "CYGFM05", "group": "weather", "lat": -34.52437359575976, "lon": -100.02519147062279, "alt_km": 417.9318822112218, "timestamp": "2025-12-19T22:41:52.021429+00:00", "meta": {"OBJECT_NAME": "CYGFM05", "OBJECT_ID": "2016-078A", "EPOCH": "2025-12-19T09:11:21.636384", "MEAN_MOTION": 15.47871855, "ECCENTRICITY": 0.0010737, "INCLINATION": 34.9606, "RA_OF_ASC_NODE": 3.7291, "ARG_OF_PERICENTER": 241.806, "MEAN_ANOMALY": 118.1577, "EPHEMERIS_TYPE": 0, "CLASSIFICATION_TYPE": "U", "NORAD_CAT_ID": 41884, "ELEMENT_SET_NO": 999, "REV_AT_EPOCH": 50079, "BSTAR": 0.00028094, "MEAN_MOTION_DOT": 0.00015083, "MEAN_MOTION_DDOT": 0}, "tle": {"line1": "1 41884U 16078A   25353.38288931  .00015083  00000+0  28094-3 0  9999", "line2": "2 41884  34.9606   3.7291 0010737 241.8060 118.1577 15.47871855500798"}}, "geometry": {"type": "Point", "coordinates": [-100.02519147062279, -34.52437359575976]}}, {"type": "Feature", "properties": {"norad_id": 41885, "name": "CYGFM04", "group": "weather", "lat": -17.866158825367435, "lon": -177.87992860418987, "alt_km": 412.38475282886156, "timestamp": "2025-12-19T22:41:52.021441+00:00", "meta": {"OBJECT_NAME": "CYGFM04", "OBJECT_ID": "2016-078B", "EPOCH": "2025-12-19T07:52:46.453152", "MEAN_MOTION": 15.50627093, "ECCENTRICITY": 0.0009761, "INCLINATION": 34.9358, "RA_OF_ASC_NODE": 338.6707, "ARG_OF_PERICENTER": 266.492, "MEAN_ANOMALY": 93.4686, "EPHEMERIS_TYPE": 0, "CLASSIFICATION_TYPE": "U", "NORAD_CAT_ID": 41885, "ELEMENT_SET_NO": 999, "REV_AT_EPOCH": 50096, "BSTAR": 0.0003093, "MEAN_MOTION_DOT": 0.00018314, "MEAN_MOTION_DDOT": 0}, "tle": {"line1": "1 41885U 16078B   25353.32831543  .00018314  00000+0  30930-3 0  9999", "line2": "2 41885  34.9358 338.6707 0009761 266.4920  93.4686 15.50627093500960"}}, "geometry": {"type": "Point", "coordinates": [-177.87992860418987, -17.866158825367435]}}, {"type": "Feature", "properties": {"norad_id": 41886, "name": "CYGFM02", "group": "weather", "lat": -34.50314067915268, "lon": -127.28907865003742, "alt_km": 405.22600133372725, "timestamp": "2025-12-19T22:41:52.021477+00:00", "meta": {"OBJECT_NAME": "CYGFM02", "OBJECT_ID": "2016-078C", "EPOCH": "2025-12-19T09:13:31.944000", "MEAN_MOTION": 15.52029516, "ECCENTRICITY": 0.0011406, "INCLINATION": 34.9446, "RA_OF_ASC_NODE": 336.5423, "ARG_OF_PERICENTER": 267.1971, "MEAN_ANOMALY": 92.7446, "EPHEMERIS_TYPE": 0, "CLASSIFICATION_TYPE": "U", "NORAD_CAT_ID": 41886, "ELEMENT_SET_NO": 999, "REV_AT_EPOCH": 50110, "BSTAR": 0.0002974, "MEAN_MOTION_DOT": 0.00018531, "MEAN_MOTION_DDOT": 0}, "tle": {"line1": "1 41886U 16078C   25353.38439750  .00018531  00000+0  29740-3 0  9998", "line2": "2 41886  34.9446 336.5423 0011406 267.1971  92.7446 15.52029516501105"}}, "geometry": {"type": "Point", "coordinates": [-127.28907865003742, -34.50314067915268]}}, {"type": "Feature", "properties": {"norad_id": 41887, "name": "CYGFM01", "group": "weather", "lat": -21.032872925904407, "lon": -31.065105328529807, "alt_km": 421.28463101793295, "timestamp": "2025-12-19T22:41:52.021493+00:00", "meta": {"OBJECT_NAME": "CYGFM01", "OBJECT_ID": "2016-078D", "EPOCH": "2025-12-19T10:29:10.828032", "MEAN_MOTION": 15.48460328, "ECCENTRICITY": 0.0010407, "INCLINATION": 34.9437, "RA_OF_ASC_NODE": 5.6782, "ARG_OF_PERICENTER": 234.9387, "MEAN_ANOMALY": 125.0359, "EPHEMERIS_TYPE": 0, "CLASSIFICATION_TYPE": "U", "NORAD_CAT_ID": 41887, "ELEMENT_SET_NO": 999, "REV_AT_EPOCH": 50074, "BSTAR": 0.00029609, "MEAN_MOTION_DOT": 0.00016232, "MEAN_MOTION_DDOT": 0}, "tle": {"line1": "1 41887U 16078D   25353.43693088  .00016232  00000+0  29609-3 0  9991", "line2": "2 41887  34.9437   5.6782 0010407 234.9387 125.0359 15.48460328500748"}}, "geometry": {"type": "Point", "coordinates": [-31.065105328529807, -21.032872925904407]}}, {"type": "Feature", "properties": {"norad_id": 41888, "name": "CYGFM08", "group": "weather", "lat": 22.14345533013024, "lon": 20.900161367161893, "alt_km": 419.3703767956504, "timestamp": "2025-12-19T22:41:52.021505+00:00", "meta": {"OBJECT_NAME": "CYGFM08", "OBJECT_ID": "2016-078E", "EPOCH": "2025-12-19T16:20:11.529600", "MEAN_MOTION": 15.4969152, "ECCENTRICITY": 0.001198, "INCLINATION": 34.9468, "RA_OF_ASC_NODE": 346.9937, "ARG_OF_PERICENTER": 259.5157, "MEAN_ANOMALY": 100.4216, "EPHEMERIS_TYPE": 0, "CLASSIFICATION_TYPE": "U", "NORAD_CAT_ID": 41888, "ELEMENT_SET_NO": 999, "REV_AT_EPOCH": 50101, "BSTAR": 0.00028607, "MEAN_MOTION_DOT": 0.00016391, "MEAN_MOTION_DDOT": 0}, "tle": {"line1": "1 41888U 16078E   25353.68068900  .00016391  00000+0  28607-3 0  9991", "line2": "2 41888  34.9468 346.9937 0011980 259.5157 100.4216 15.49691520501012"}}, "geometry": {"type": "Point", "coordinates": [20.900161367161893, 22.14345533013024]}}, {"type": "Feature", "properties": {"norad_id": 41890, "name": "CYGFM07", "group": "weather", "lat": 23.497156087720903, "lon": 12.697814080813014, "alt_km": 415.3742537882508, "timestamp": "2025-12-19T22:41:52.021517+00:00", "meta": {"OBJECT_NAME": "CYGFM07", "OBJECT_ID": "2016-078G", "EPOCH": "2025-12-19T08:35:55.881024", "MEAN_MOTION": 15.50269103, "ECCENTRICITY": 0.0010122, "INCLINATION": 34.9484, "RA_OF_ASC_NODE": 338.0499, "ARG_OF_PERICENTER": 271.9138, "MEAN_ANOMALY": 88.0425, "EPHEMERIS_TYPE": 0, "CLASSIFICATION_TYPE": "U", "NORAD_CAT_ID": 41890, "ELEMENT_SET_NO": 999, "REV_AT_EPOCH": 50098, "BSTAR": 0.00031348, "MEAN_MOTION_DOT": 0.00018328, "MEAN_MOTION_DDOT": 0}, "tle": {"line1": "1 41890U 16078G   25353.35828566  .00018328  00000+0  31348-3 0  9998", "line2": "2 41890  34.9484 338.0499 0010122 271.9138  88.0425 15.50269103500980"}}, "geometry": {"type": "Point", "coordinates": [12.697814080813014, 23.497156087720903]}}, {"type": "Feature", "properties": {"norad_id": 41891, "name": "CYGFM03", "group": "weather", "lat": -28.38993605758676, "lon": -153.16230344346513, "alt_km": 412.1562175125464, "timestamp": "2025-12-19T22:41:52.021527+00:00", "meta": {"OBJECT_NAME": "CYGFM03", "OBJECT_ID": "2016-078H", "EPOCH": "2025-12-19T09:19:08.109120", "MEAN_MOTION": 15.50167103, "ECCENTRICITY": 0.0009679, "INCLINATION": 34.9439, "RA_OF_ASC_NODE": 339.7759, "ARG_OF_PERICENTER": 260.0765, "MEAN_ANOMALY": 99.8864, "EPHEMERIS_TYPE": 0, "CLASSIFICATION_TYPE": "U", "NORAD_CAT_ID": 41891, "ELEMENT_SET_NO": 999, "REV_AT_EPOCH": 50096, "BSTAR": 0.0003054, "MEAN_MOTION_DOT": 0.00017785, "MEAN_MOTION_DDOT": 0}, "tle": {"line1": "1 41891U 16078H   25353.38828830  .00017785  00000+0  30540-3 0  9995", "line2": "2 41891  34.9439 339.7759 0009679 260.0765  99.8864 15.50167103500960"}}, "geometry": {"type": "Point", "coordinates": [-153.16230344346513, -28.38993605758676]}}]}